1 43013U 17073A   26026.81907703  .00000149  00000+0  91399-4 0  9998
2 43013  98.7647 327.6343 0000991  22.4130 337.7089 14.19540778424411
